[{"OBJECT_NAME":"ISS (ZARYA)","OBJECT_ID":"1998-067A","EPOCH":"2026-04-02T03:12:11.610144","MEAN_MOTION":15.48713693,"ECCENTRICITY":0.00062399,"INCLINATION":51.6331,"RA_OF_ASC_NODE":316.4579,"ARG_OF_PERICENTER":262.1298,"MEAN_ANOMALY":97.8982,"EPHEMERIS_TYPE":0,"CLASSIFICATION_TYPE":"U","NORAD_CAT_ID":25544,"ELEMENT_SET_NO":999,"REV_AT_EPOCH":55996,"BSTAR":0.00020754706,"MEAN_MOTION_DOT":0.00010892,"MEAN_MOTION_DDOT":0},{"OBJECT_NAME":"POISK","OBJECT_ID":"2009-060A","EPOCH":"2026-04-02T03:12:11.610144","MEAN_MOTION":15.48713693,"ECCENTRICITY":0.00062399,"INCLINATION":51.6331,"RA_OF_ASC_NODE":316.4579,"ARG_OF_PERICENTER":262.1298,"MEAN_ANOMALY":97.8982,"EPHEMERIS_TYPE":0,"CLASSIFICATION_TYPE":"U","NORAD_CAT_ID":36086,"ELEMENT_SET_NO":999,"REV_AT_EPOCH":55958,"BSTAR":0.00020754706,"MEAN_MOTION_DOT":0.00010892,"MEAN_MOTION_DDOT":0},{"OBJECT_NAME":"CSS (TIANHE)","OBJECT_ID":"2021-035A","EPOCH":"2026-04-01T08:38:43.102176","MEAN_MOTION":15.61804306,"ECCENTRICITY":0.00037219,"INCLINATION":41.467,"RA_OF_ASC_NODE":70.0996,"ARG_OF_PERICENTER":85.9086,"MEAN_ANOMALY":274.2179,"EPHEMERIS_TYPE":0,"CLASSIFICATION_TYPE":"U","NORAD_CAT_ID":48274,"ELEMENT_SET_NO":999,"REV_AT_EPOCH":28115,"BSTAR":0.00027286117,"MEAN_MOTION_DOT":0.00024066,"MEAN_MOTION_DDOT":0},{"OBJECT_NAME":"ISS (NAUKA)","OBJECT_ID":"2021-066A","EPOCH":"2026-04-02T03:12:11.610144","MEAN_MOTION":15.48713693,"ECCENTRICITY":0.00062399,"INCLINATION":51.6331,"RA_OF_ASC_NODE":316.4579,"ARG_OF_PERICENTER":262.1298,"MEAN_ANOMALY":97.8982,"EPHEMERIS_TYPE":0,"CLASSIFICATION_TYPE":"U","NORAD_CAT_ID":49044,"ELEMENT_SET_NO":999,"REV_AT_EPOCH":55962,"BSTAR":0.00020754706,"MEAN_MOTION_DOT":0.00010892,"MEAN_MOTION_DDOT":0},{"OBJECT_NAME":"FREGAT DEB","OBJECT_ID":"2011-037PF","EPOCH":"2026-04-01T09:42:29.881728","MEAN_MOTION":12.40826791,"ECCENTRICITY":0.09585064,"INCLINATION":51.6434,"RA_OF_ASC_NODE":232.5447,"ARG_OF_PERICENTER":111.4864,"MEAN_ANOMALY":259.0863,"EPHEMERIS_TYPE":0,"CLASSIFICATION_TYPE":"U","NORAD_CAT_ID":49271,"ELEMENT_SET_NO":999,"REV_AT_EPOCH":21551,"BSTAR":0.010238307,"MEAN_MOTION_DOT":7.093e-5,"MEAN_MOTION_DDOT":0},{"OBJECT_NAME":"CSS (WENTIAN)","OBJECT_ID":"2022-085A","EPOCH":"2026-04-01T08:38:43.102176","MEAN_MOTION":15.61804306,"ECCENTRICITY":0.00037219,"INCLINATION":41.467,"RA_OF_ASC_NODE":70.0996,"ARG_OF_PERICENTER":85.9086,"MEAN_ANOMALY":274.2179,"EPHEMERIS_TYPE":0,"CLASSIFICATION_TYPE":"U","NORAD_CAT_ID":53239,"ELEMENT_SET_NO":999,"REV_AT_EPOCH":28115,"BSTAR":0.00027286117,"MEAN_MOTION_DOT":0.00024066,"MEAN_MOTION_DDOT":0},{"OBJECT_NAME":"CSS (MENGTIAN)","OBJECT_ID":"2022-143A","EPOCH":"2026-04-01T08:38:43.102176","MEAN_MOTION":15.61804306,"ECCENTRICITY":0.00037219,"INCLINATION":41.467,"RA_OF_ASC_NODE":70.0996,"ARG_OF_PERICENTER":85.9086,"MEAN_ANOMALY":274.2179,"EPHEMERIS_TYPE":0,"CLASSIFICATION_TYPE":"U","NORAD_CAT_ID":54216,"ELEMENT_SET_NO":999,"REV_AT_EPOCH":28115,"BSTAR":0.00027286117,"MEAN_MOTION_DOT":0.00024066,"MEAN_MOTION_DDOT":0},{"OBJECT_NAME":"TIANZHOU-9","OBJECT_ID":"2025-149A","EPOCH":"2026-04-01T08:38:43.102176","MEAN_MOTION":15.61804306,"ECCENTRICITY":0.00037219,"INCLINATION":41.467,"RA_OF_ASC_NODE":70.0996,"ARG_OF_PERICENTER":85.9086,"MEAN_ANOMALY":274.2179,"EPHEMERIS_TYPE":0,"CLASSIFICATION_TYPE":"U","NORAD_CAT_ID":64786,"ELEMENT_SET_NO":999,"REV_AT_EPOCH":28115,"BSTAR":0.00027286117,"MEAN_MOTION_DOT":0.00024066,"MEAN_MOTION_DDOT":0},{"OBJECT_NAME":"PROGRESS-MS 32","OBJECT_ID":"2025-204A","EPOCH":"2026-04-02T03:12:11.610144","MEAN_MOTION":15.48713693,"ECCENTRICITY":0.00062399,"INCLINATION":51.6331,"RA_OF_ASC_NODE":316.4579,"ARG_OF_PERICENTER":262.1298,"MEAN_ANOMALY":97.8982,"EPHEMERIS_TYPE":0,"CLASSIFICATION_TYPE":"U","NORAD_CAT_ID":65586,"ELEMENT_SET_NO":999,"REV_AT_EPOCH":55450,"BSTAR":0.00020754706,"MEAN_MOTION_DOT":0.00010892,"MEAN_MOTION_DDOT":0},{"OBJECT_NAME":"YOTSUBA-KULOVER","OBJECT_ID":"1998-067XN","EPOCH":"2026-04-01T22:38:23.131392","MEAN_MOTION":15.95323178,"ECCENTRICITY":0.0007166,"INCLINATION":51.6161,"RA_OF_ASC_NODE":295.5478,"ARG_OF_PERICENTER":248.8797,"MEAN_ANOMALY":111.1445,"EPHEMERIS_TYPE":0,"CLASSIFICATION_TYPE":"U","NORAD_CAT_ID":65941,"ELEMENT_SET_NO":999,"REV_AT_EPOCH":2719,"BSTAR":0.0012849,"MEAN_MOTION_DOT":0.00519435,"MEAN_MOTION_DDOT":0.00012115},{"OBJECT_NAME":"BOTAN","OBJECT_ID":"1998-067XQ","EPOCH":"2026-04-02T06:29:54.357792","MEAN_MOTION":15.944185,"ECCENTRICITY":0.00072404,"INCLINATION":51.6178,"RA_OF_ASC_NODE":294.0102,"ARG_OF_PERICENTER":246.3649,"MEAN_ANOMALY":113.6599,"EPHEMERIS_TYPE":0,"CLASSIFICATION_TYPE":"U","NORAD_CAT_ID":65943,"ELEMENT_SET_NO":999,"REV_AT_EPOCH":2724,"BSTAR":0.0014304262,"MEAN_MOTION_DOT":0.00550894,"MEAN_MOTION_DDOT":0.00013410314},{"OBJECT_NAME":"HRC MONOBLOCK CAMERA","OBJECT_ID":"1998-067XR","EPOCH":"2026-04-01T23:11:52.263168","MEAN_MOTION":15.64748544,"ECCENTRICITY":0.0003818,"INCLINATION":51.627,"RA_OF_ASC_NODE":307.8382,"ARG_OF_PERICENTER":206.2163,"MEAN_ANOMALY":153.864,"EPHEMERIS_TYPE":0,"CLASSIFICATION_TYPE":"U","NORAD_CAT_ID":66052,"ELEMENT_SET_NO":999,"REV_AT_EPOCH":2603,"BSTAR":0.0005826,"MEAN_MOTION_DOT":0.00057662,"MEAN_MOTION_DDOT":0},{"OBJECT_NAME":"HTV-X1","OBJECT_ID":"2025-241A","EPOCH":"2026-04-02T07:43:54.761376","MEAN_MOTION":15.32498869,"ECCENTRICITY":0.00072321,"INCLINATION":51.6372,"RA_OF_ASC_NODE":319.1601,"ARG_OF_PERICENTER":263.7967,"MEAN_ANOMALY":96.219,"EPHEMERIS_TYPE":0,"CLASSIFICATION_TYPE":"U","NORAD_CAT_ID":66174,"ELEMENT_SET_NO":999,"REV_AT_EPOCH":2456,"BSTAR":7.4806522e-5,"MEAN_MOTION_DOT":2.012e-5,"MEAN_MOTION_DDOT":0},{"OBJECT_NAME":"SZ-21 MODULE","OBJECT_ID":"2025-246C","EPOCH":"2026-04-02T05:39:02.937888","MEAN_MOTION":15.70445326,"ECCENTRICITY":0.00026896,"INCLINATION":41.4744,"RA_OF_ASC_NODE":58.2163,"ARG_OF_PERICENTER":222.0292,"MEAN_ANOMALY":138.0345,"EPHEMERIS_TYPE":0,"CLASSIFICATION_TYPE":"U","NORAD_CAT_ID":66515,"ELEMENT_SET_NO":999,"REV_AT_EPOCH":2177,"BSTAR":0.00041273011,"MEAN_MOTION_DOT":0.00052107,"MEAN_MOTION_DDOT":0},{"OBJECT_NAME":"SHENZHOU-22","OBJECT_ID":"2025-272A","EPOCH":"2026-04-01T08:38:43.102176","MEAN_MOTION":15.61804306,"ECCENTRICITY":0.00037219,"INCLINATION":41.467,"RA_OF_ASC_NODE":70.0996,"ARG_OF_PERICENTER":85.9086,"MEAN_ANOMALY":274.2179,"EPHEMERIS_TYPE":0,"CLASSIFICATION_TYPE":"U","NORAD_CAT_ID":66645,"ELEMENT_SET_NO":999,"REV_AT_EPOCH":28115,"BSTAR":0.00027286117,"MEAN_MOTION_DOT":0.00024066,"MEAN_MOTION_DDOT":0},{"OBJECT_NAME":"SOYUZ-MS 28","OBJECT_ID":"2025-275A","EPOCH":"2026-04-02T03:12:11.610144","MEAN_MOTION":15.48713693,"ECCENTRICITY":0.00062399,"INCLINATION":51.6331,"RA_OF_ASC_NODE":316.4579,"ARG_OF_PERICENTER":262.1298,"MEAN_ANOMALY":97.8982,"EPHEMERIS_TYPE":0,"CLASSIFICATION_TYPE":"U","NORAD_CAT_ID":66664,"ELEMENT_SET_NO":999,"REV_AT_EPOCH":55986,"BSTAR":0.00020754706,"MEAN_MOTION_DOT":0.00010892,"MEAN_MOTION_DDOT":0}]
